{
  "type": "FeatureCollection",
  "features": [
    {
      "type": "Feature",
      "properties": {
        "norad_id": 40376,
        "name": "SMAP",
        "group": "resource",
        "lat": 70.82119341877845,
        "lon": -23.066523953015995,
        "alt_km": 674.6781574401966,
        "timestamp": "2025-12-22T14:45:57.042081+00:00",
        "meta_object_name": "SMAP",
        "meta_object_id": "2015-003A",
        "meta_epoch": "2025-12-22T06:13:48.914688",
        "meta_mean_motion": 14.63356464,
        "meta_eccentricity": 0.00012293,
        "meta_inclination": 98.1289,
        "meta_ra_of_asc_node": 0.8462,
        "meta_arg_of_pericenter": 91.7597,
        "meta_mean_anomaly": 268.3746,
        "meta_ephemeris_type": 0,
        "meta_classification_type": "U",
        "meta_norad_cat_id": 40376,
        "meta_element_set_no": 999,
        "meta_rev_at_epoch": 58174,
        "meta_bstar": 0.00010691183,
        "meta_mean_motion_dot": 5.05e-06,
        "meta_mean_motion_ddot": 0,
        "tle_line1": "1 40376U 15003A   25356.25959392  .00000505  00000+0  10691-3 0  9993",
        "tle_line2": "2 40376  98.1289   0.8462 0001229  91.7597 268.3746 14.63356464581744"
      },
      "geometry": {
        "type": "Point",
        "coordinates": [
          -23.066523953015995,
          70.82119341877845
        ]
      }
    },
    {
      "type": "Feature",
      "properties": {
        "norad_id": 40536,
        "name": "KOMPSAT-3A",
        "group": "resource",
        "lat": 67.38559210202266,
        "lon": 170.41143547295718,
        "alt_km": 423.17960630180096,
        "timestamp": "2025-12-22T14:45:57.042091+00:00",
        "meta_object_name": "KOMPSAT-3A",
        "meta_object_id": "2015-014A",
        "meta_epoch": "2025-12-22T06:30:36.988416",
        "meta_mean_motion": 15.44274331,
        "meta_eccentricity": 0.00055385,
        "meta_inclination": 97.6798,
        "meta_ra_of_asc_node": 331.1463,
        "meta_arg_of_pericenter": 105.842,
        "meta_mean_anomaly": 254.3438,
        "meta_ephemeris_type": 0,
        "meta_classification_type": "U",
        "meta_norad_cat_id": 40536,
        "meta_element_set_no": 999,
        "meta_rev_at_epoch": 59442,
        "meta_bstar": 0.00045237292,
        "meta_mean_motion_dot": 0.00020755,
        "meta_mean_motion_ddot": 0,
        "tle_line1": "1 40536U 15014A   25356.27126144  .00020755  00000+0  45237-3 0  9999",
        "tle_line2": "2 40536  97.6798 331.1463 0005538 105.8420 254.3438 15.44274331594425"
      },
      "geometry": {
        "type": "Point",
        "coordinates": [
          170.41143547295718,
          67.38559210202266
        ]
      }
    },
    {
      "type": "Feature",
      "properties": {
        "norad_id": 40697,
        "name": "SENTINEL-2A",
        "group": "resource",
        "lat": -45.47838878891971,
        "lon": -119.8148435930683,
        "alt_km": 796.3073927666401,
        "timestamp": "2025-12-22T14:45:57.042101+00:00",
        "meta_object_name": "SENTINEL-2A",
        "meta_object_id": "2015-028A",
        "meta_epoch": "2025-12-22T06:59:57.456672",
        "meta_mean_motion": 14.30808655,
        "meta_eccentricity": 0.000107,
        "meta_inclination": 98.5739,
        "meta_ra_of_asc_node": 68.6905,
        "meta_arg_of_pericenter": 89.1988,
        "meta_mean_anomaly": 270.9317,
        "meta_ephemeris_type": 0,
        "meta_classification_type": "U",
        "meta_norad_cat_id": 40697,
        "meta_element_set_no": 999,
        "meta_rev_at_epoch": 54843,
        "meta_bstar": 2.1488581e-05,
        "meta_mean_motion_dot": 1.3e-07,
        "meta_mean_motion_ddot": 0,
        "tle_line1": "1 40697U 15028A   25356.29163723  .00000013  00000+0  21489-4 0  9997",
        "tle_line2": "2 40697  98.5739  68.6905 0001070  89.1988 270.9317 14.30808655548437"
      },
      "geometry": {
        "type": "Point",
        "coordinates": [
          -119.8148435930683,
          -45.47838878891971
        ]
      }
    },
    {
      "type": "Feature",
      "properties": {
        "norad_id": 40701,
        "name": "GAOFEN-8",
        "group": "resource",
        "lat": 36.803311379352,
        "lon": 1.041443626442434,
        "alt_km": 440.5566949694248,
        "timestamp": "2025-12-22T14:45:57.042111+00:00",
        "meta_object_name": "GAOFEN-8",
        "meta_object_id": "2015-030A",
        "meta_epoch": "2025-12-22T06:20:44.643840",
        "meta_mean_motion": 15.38862403,
        "meta_eccentricity": 0.00117722,
        "meta_inclination": 97.6904,
        "meta_ra_of_asc_node": 174.8708,
        "meta_arg_of_pericenter": 105.4535,
        "meta_mean_anomaly": 254.801,
        "meta_ephemeris_type": 0,
        "meta_classification_type": "U",
        "meta_norad_cat_id": 40701,
        "meta_element_set_no": 999,
        "meta_rev_at_epoch": 58417,
        "meta_bstar": 0.0011571934,
        "meta_mean_motion_dot": 0.00044704,
        "meta_mean_motion_ddot": 0,
        "tle_line1": "1 40701U 15030A   25356.26440560  .00044704  00000+0  11572-2 0  9995",
        "tle_line2": "2 40701  97.6904 174.8708 0011772 105.4535 254.8010 15.38862403584170"
      },
      "geometry": {
        "type": "Point",
        "coordinates": [
          1.041443626442434,
          36.803311379352
        ]
      }
    },
    {
      "type": "Feature",
      "properties": {
        "norad_id": 40718,
        "name": "CARBONITE 1 (CBNT-1)",
        "group": "resource",
        "lat": -66.97766519845938,
        "lon": -21.189306639473635,
        "alt_km": 629.4561188240968,
        "timestamp": "2025-12-22T14:45:57.042121+00:00",
        "meta_object_name": "CARBONITE 1 (CBNT-1)",
        "meta_object_id": "2015-032D",
        "meta_epoch": "2025-12-22T05:33:11.536128",
        "meta_mean_motion": 14.82781986,
        "meta_eccentricity": 0.00150437,
        "meta_inclination": 97.6396,
        "meta_ra_of_asc_node": 176.857,
        "meta_arg_of_pericenter": 150.3732,
        "meta_mean_anomaly": 209.8337,
        "meta_ephemeris_type": 0,
        "meta_classification_type": "U",
        "meta_norad_cat_id": 40718,
        "meta_element_set_no": 999,
        "meta_rev_at_epoch": 56311,
        "meta_bstar": 0.00013948175,
        "meta_mean_motion_dot": 1.079e-05,
        "meta_mean_motion_ddot": 0,
        "tle_line1": "1 40718U 15032D   25356.23138352  .00001079  00000+0  13948-3 0  9993",
        "tle_line2": "2 40718  97.6396 176.8570 0015043 150.3732 209.8337 14.82781986563112"
      },
      "geometry": {
        "type": "Point",
        "coordinates": [
          -21.189306639473635,
          -66.97766519845938
        ]
      }
    },
    {
      "type": "Feature",
      "properties": {
        "norad_id": 40878,
        "name": "YAOGAN-27",
        "group": "resource",
        "lat": 30.292846438241014,
        "lon": 171.76519356359287,
        "alt_km": 1200.2906432675945,
        "timestamp": "2025-12-22T14:45:57.042131+00:00",
        "meta_object_name": "YAOGAN-27",
        "meta_object_id": "2015-040A",
        "meta_epoch": "2025-12-22T06:42:42.942816",
        "meta_mean_motion": 13.16059918,
        "meta_eccentricity": 0.00075719,
        "meta_inclination": 100.1007,
        "meta_ra_of_asc_node": 345.468,
        "meta_arg_of_pericenter": 263.204,
        "meta_mean_anomaly": 96.8213,
        "meta_ephemeris_type": 0,
        "meta_classification_type": "U",
        "meta_norad_cat_id": 40878,
        "meta_element_set_no": 999,
        "meta_rev_at_epoch": 49439,
        "meta_bstar": -8.2397577e-05,
        "meta_mean_motion_dot": -7.4e-07,
        "meta_mean_motion_ddot": 0,
        "tle_line1": "1 40878U 15040A   25356.27966369 -.00000074  00000+0 -82398-4 0  9992",
        "tle_line2": "2 40878 100.1007 345.4680 0007571 263.2040  96.8213 13.16059918494396"
      },
      "geometry": {
        "type": "Point",
        "coordinates": [
          171.76519356359287,
          30.292846438241014
        ]
      }
    },
    {
      "type": "Feature",
      "properties": {
        "norad_id": 40894,
        "name": "GAOFEN-9 01",
        "group": "resource",
        "lat": 22.521345459907874,
        "lon": -141.66014089114867,
        "alt_km": 638.793297815082,
        "timestamp": "2025-12-22T14:45:57.042141+00:00",
        "meta_object_name": "GAOFEN-9 01",
        "meta_object_id": "2015-047A",
        "meta_epoch": "2025-12-22T05:57:36.709056",
        "meta_mean_motion": 14.82444832,
        "meta_eccentricity": 0.00276169,
        "meta_inclination": 97.653,
        "meta_ra_of_asc_node": 34.7927,
        "meta_arg_of_pericenter": 3.645,
        "meta_mean_anomaly": 356.496,
        "meta_ephemeris_type": 0,
        "meta_classification_type": "U",
        "meta_norad_cat_id": 40894,
        "meta_element_set_no": 999,
        "meta_rev_at_epoch": 55397,
        "meta_bstar": 0.00013895473,
        "meta_mean_motion_dot": 1.07e-05,
        "meta_mean_motion_ddot": 0,
        "tle_line1": "1 40894U 15047A   25356.24834154  .00001070  00000+0  13895-3 0  9990",
        "tle_line2": "2 40894  97.6530  34.7927 0027616   3.6450 356.4960 14.82444832553971"
      },
      "geometry": {
        "type": "Point",
        "coordinates": [
          -141.66014089114867,
          22.521345459907874
        ]
      }
    }
  ]
}